IRIDIUM 7               
1 24793U 97020B   25206.36447416  .00000356  00000+0  11591-3 0  9996
2 24793  86.4008 160.9264 0002265  78.6039 281.5412 14.35960662477372
IRIDIUM 5               
1 24795U 97020D   25206.54188610  .00004110  00000+0  33494-3 0  9994
2 24795  86.3850  66.0369 0108340   2.0521 358.1129 14.94627545491195
IRIDIUM 4               
1 24796U 97020E   25206.39361143  .00000341  00000+0  10872-3 0  9999
2 24796  86.4005 157.7698 0002351  83.8069 276.3396 14.36862000477959
IRIDIUM 914             
1 24836U 97030A   25206.42872521  .00000414  00000+0  12284-3 0  9996
2 24836  86.3982 166.2360 0003871  89.4464 270.7179 14.40897037612633
IRIDIUM 16              
1 24841U 97030F   25206.44598573  .00000342  00000+0  10502-3 0  9997
2 24841  86.4060 189.2098 0001236  16.2453 343.8785 14.38734905472505
IRIDIUM 911             
1 24842U 97030G   25206.47893688  .00000535  00000+0  13958-3 0  9998
2 24842  86.4485 187.9252 0013253 339.0791  20.9868 14.47671434480621
IRIDIUM 17              
1 24870U 97034B   25206.52636088  .00000369  00000+0  11574-3 0  9995
2 24870  86.3946 218.6311 0000896 127.8376 232.2903 14.37850959469098
IRIDIUM 920             
1 24871U 97034C   25206.47066045  .00000396  00000+0  11586-3 0  9993
2 24871  86.3989 197.8072 0010143 325.0569  34.9964 14.41557479472094
