<?xml version="1.0" encoding="UTF-8"?>
<ndm xmlns:xsi="http://www.w3.org/2001/XMLSchema-instance" xsi:noNamespaceSchemaLocation="https://sanaregistry.org/r/ndmxml_unqualified/ndmxml-2.0.0-master-2.0.xsd">
<omm id="CCSDS_OMM_VERS" version="2.0">
<header><CREATION_DATE/><ORIGINATOR/></header><body><segment><metadata><OBJECT_NAME>IRIDIUM 7</OBJECT_NAME><OBJECT_ID>1997-020B</OBJECT_ID><CENTER_NAME>EARTH</CENTER_NAME><REF_FRAME>TEME</REF_FRAME><TIME_SYSTEM>UTC</TIME_SYSTEM><MEAN_ELEMENT_THEORY>SGP4</MEAN_ELEMENT_THEORY></metadata><data><meanElements><EPOCH>2025-07-25T08:44:50.567424</EPOCH><MEAN_MOTION>14.35960662</MEAN_MOTION><ECCENTRICITY>.0002265</ECCENTRICITY><INCLINATION>86.4008</INCLINATION><RA_OF_ASC_NODE>160.9264</RA_OF_ASC_NODE><ARG_OF_PERICENTER>78.6039</ARG_OF_PERICENTER><MEAN_ANOMALY>281.5412</MEAN_ANOMALY></meanElements><tleParameters><EPHEMERIS_TYPE>0</EPHEMERIS_TYPE><CLASSIFICATION_TYPE>U</CLASSIFICATION_TYPE><NORAD_CAT_ID>24793</NORAD_CAT_ID><ELEMENT_SET_NO>999</ELEMENT_SET_NO><REV_AT_EPOCH>47737</REV_AT_EPOCH><BSTAR>.11591E-3</BSTAR><MEAN_MOTION_DOT>.356E-5</MEAN_MOTION_DOT><MEAN_MOTION_DDOT>0</MEAN_MOTION_DDOT></tleParameters></data></segment></body></omm>
<omm id="CCSDS_OMM_VERS" version="2.0">
<header><CREATION_DATE/><ORIGINATOR/></header><body><segment><metadata><OBJECT_NAME>IRIDIUM 5</OBJECT_NAME><OBJECT_ID>1997-020D</OBJECT_ID><CENTER_NAME>EARTH</CENTER_NAME><REF_FRAME>TEME</REF_FRAME><TIME_SYSTEM>UTC</TIME_SYSTEM><MEAN_ELEMENT_THEORY>SGP4</MEAN_ELEMENT_THEORY></metadata><data><meanElements><EPOCH>2025-07-25T13:00:18.959040</EPOCH><MEAN_MOTION>14.94627545</MEAN_MOTION><ECCENTRICITY>.010834</ECCENTRICITY><INCLINATION>86.3850</INCLINATION><RA_OF_ASC_NODE>66.0369</RA_OF_ASC_NODE><ARG_OF_PERICENTER>2.0521</ARG_OF_PERICENTER><MEAN_ANOMALY>358.1129</MEAN_ANOMALY></meanElements><tleParameters><EPHEMERIS_TYPE>0</EPHEMERIS_TYPE><CLASSIFICATION_TYPE>U</CLASSIFICATION_TYPE><NORAD_CAT_ID>24795</NORAD_CAT_ID><ELEMENT_SET_NO>999</ELEMENT_SET_NO><REV_AT_EPOCH>49119</REV_AT_EPOCH><BSTAR>.33494E-3</BSTAR><MEAN_MOTION_DOT>.411E-4</MEAN_MOTION_DOT><MEAN_MOTION_DDOT>0</MEAN_MOTION_DDOT></tleParameters></data></segment></body></omm>
<omm id="CCSDS_OMM_VERS" version="2.0">
<header><CREATION_DATE/><ORIGINATOR/></header><body><segment><metadata><OBJECT_NAME>IRIDIUM 4</OBJECT_NAME><OBJECT_ID>1997-020E</OBJECT_ID><CENTER_NAME>EARTH</CENTER_NAME><REF_FRAME>TEME</REF_FRAME><TIME_SYSTEM>UTC</TIME_SYSTEM><MEAN_ELEMENT_THEORY>SGP4</MEAN_ELEMENT_THEORY></metadata><data><meanElements><EPOCH>2025-07-25T09:26:48.027552</EPOCH><MEAN_MOTION>14.36862000</MEAN_MOTION><ECCENTRICITY>.0002351</ECCENTRICITY><INCLINATION>86.4005</INCLINATION><RA_OF_ASC_NODE>157.7698</RA_OF_ASC_NODE><ARG_OF_PERICENTER>83.8069</ARG_OF_PERICENTER><MEAN_ANOMALY>276.3396</MEAN_ANOMALY></meanElements><tleParameters><EPHEMERIS_TYPE>0</EPHEMERIS_TYPE><CLASSIFICATION_TYPE>U</CLASSIFICATION_TYPE><NORAD_CAT_ID>24796</NORAD_CAT_ID><ELEMENT_SET_NO>999</ELEMENT_SET_NO><REV_AT_EPOCH>47795</REV_AT_EPOCH><BSTAR>.10872E-3</BSTAR><MEAN_MOTION_DOT>.341E-5</MEAN_MOTION_DOT><MEAN_MOTION_DDOT>0</MEAN_MOTION_DDOT></tleParameters></data></segment></body></omm>
<omm id="CCSDS_OMM_VERS" version="2.0">
<header><CREATION_DATE/><ORIGINATOR/></header><body><segment><metadata><OBJECT_NAME>IRIDIUM 914</OBJECT_NAME><OBJECT_ID>1997-030A</OBJECT_ID><CENTER_NAME>EARTH</CENTER_NAME><REF_FRAME>TEME</REF_FRAME><TIME_SYSTEM>UTC</TIME_SYSTEM><MEAN_ELEMENT_THEORY>SGP4</MEAN_ELEMENT_THEORY></metadata><data><meanElements><EPOCH>2025-07-25T10:17:21.858144</EPOCH><MEAN_MOTION>14.40897037</MEAN_MOTION><ECCENTRICITY>.0003871</ECCENTRICITY><INCLINATION>86.3982</INCLINATION><RA_OF_ASC_NODE>166.2360</RA_OF_ASC_NODE><ARG_OF_PERICENTER>89.4464</ARG_OF_PERICENTER><MEAN_ANOMALY>270.7179</MEAN_ANOMALY></meanElements><tleParameters><EPHEMERIS_TYPE>0</EPHEMERIS_TYPE><CLASSIFICATION_TYPE>U</CLASSIFICATION_TYPE><NORAD_CAT_ID>24836</NORAD_CAT_ID><ELEMENT_SET_NO>999</ELEMENT_SET_NO><REV_AT_EPOCH>61263</REV_AT_EPOCH><BSTAR>.12284E-3</BSTAR><MEAN_MOTION_DOT>.414E-5</MEAN_MOTION_DOT><MEAN_MOTION_DDOT>0</MEAN_MOTION_DDOT></tleParameters></data></segment></body></omm>
<omm id="CCSDS_OMM_VERS" version="2.0">
<header><CREATION_DATE/><ORIGINATOR/></header><body><segment><metadata><OBJECT_NAME>IRIDIUM 16</OBJECT_NAME><OBJECT_ID>1997-030F</OBJECT_ID><CENTER_NAME>EARTH</CENTER_NAME><REF_FRAME>TEME</REF_FRAME><TIME_SYSTEM>UTC</TIME_SYSTEM><MEAN_ELEMENT_THEORY>SGP4</MEAN_ELEMENT_THEORY></metadata><data><meanElements><EPOCH>2025-07-25T10:42:13.167072</EPOCH><MEAN_MOTION>14.38734905</MEAN_MOTION><ECCENTRICITY>.0001236</ECCENTRICITY><INCLINATION>86.4060</INCLINATION><RA_OF_ASC_NODE>189.2098</RA_OF_ASC_NODE><ARG_OF_PERICENTER>16.2453</ARG_OF_PERICENTER><MEAN_ANOMALY>343.8785</MEAN_ANOMALY></meanElements><tleParameters><EPHEMERIS_TYPE>0</EPHEMERIS_TYPE><CLASSIFICATION_TYPE>U</CLASSIFICATION_TYPE><NORAD_CAT_ID>24841</NORAD_CAT_ID><ELEMENT_SET_NO>999</ELEMENT_SET_NO><REV_AT_EPOCH>47250</REV_AT_EPOCH><BSTAR>.10502E-3</BSTAR><MEAN_MOTION_DOT>.342E-5</MEAN_MOTION_DOT><MEAN_MOTION_DDOT>0</MEAN_MOTION_DDOT></tleParameters></data></segment></body></omm>
<omm id="CCSDS_OMM_VERS" version="2.0">
<header><CREATION_DATE/><ORIGINATOR/></header><body><segment><metadata><OBJECT_NAME>IRIDIUM 911</OBJECT_NAME><OBJECT_ID>1997-030G</OBJECT_ID><CENTER_NAME>EARTH</CENTER_NAME><REF_FRAME>TEME</REF_FRAME><TIME_SYSTEM>UTC</TIME_SYSTEM><MEAN_ELEMENT_THEORY>SGP4</MEAN_ELEMENT_THEORY></metadata><data><meanElements><EPOCH>2025-07-25T11:29:40.146432</EPOCH><MEAN_MOTION>14.47671434</MEAN_MOTION><ECCENTRICITY>.0013253</ECCENTRICITY><INCLINATION>86.4485</INCLINATION><RA_OF_ASC_NODE>187.9252</RA_OF_ASC_NODE><ARG_OF_PERICENTER>339.0791</ARG_OF_PERICENTER><MEAN_ANOMALY>20.9868</MEAN_ANOMALY></meanElements><tleParameters><EPHEMERIS_TYPE>0</EPHEMERIS_TYPE><CLASSIFICATION_TYPE>U</CLASSIFICATION_TYPE><NORAD_CAT_ID>24842</NORAD_CAT_ID><ELEMENT_SET_NO>999</ELEMENT_SET_NO><REV_AT_EPOCH>48062</REV_AT_EPOCH><BSTAR>.13958E-3</BSTAR><MEAN_MOTION_DOT>.535E-5</MEAN_MOTION_DOT><MEAN_MOTION_DDOT>0</MEAN_MOTION_DDOT></tleParameters></data></segment></body></omm>
<omm id="CCSDS_OMM_VERS" version="2.0">
<header><CREATION_DATE/><ORIGINATOR/></header><body><segment><metadata><OBJECT_NAME>IRIDIUM 17</OBJECT_NAME><OBJECT_ID>1997-034B</OBJECT_ID><CENTER_NAME>EARTH</CENTER_NAME><REF_FRAME>TEME</REF_FRAME><TIME_SYSTEM>UTC</TIME_SYSTEM><MEAN_ELEMENT_THEORY>SGP4</MEAN_ELEMENT_THEORY></metadata><data><meanElements><EPOCH>2025-07-25T12:37:57.580032</EPOCH><MEAN_MOTION>14.37850959</MEAN_MOTION><ECCENTRICITY>.0000896</ECCENTRICITY><INCLINATION>86.3946</INCLINATION><RA_OF_ASC_NODE>218.6311</RA_OF_ASC_NODE><ARG_OF_PERICENTER>127.8376</ARG_OF_PERICENTER><MEAN_ANOMALY>232.2903</MEAN_ANOMALY></meanElements><tleParameters><EPHEMERIS_TYPE>0</EPHEMERIS_TYPE><CLASSIFICATION_TYPE>U</CLASSIFICATION_TYPE><NORAD_CAT_ID>24870</NORAD_CAT_ID><ELEMENT_SET_NO>999</ELEMENT_SET_NO><REV_AT_EPOCH>46909</REV_AT_EPOCH><BSTAR>.11574E-3</BSTAR><MEAN_MOTION_DOT>.369E-5</MEAN_MOTION_DOT><MEAN_MOTION_DDOT>0</MEAN_MOTION_DDOT></tleParameters></data></segment></body></omm>
<omm id="CCSDS_OMM_VERS" version="2.0">
<header><CREATION_DATE/><ORIGINATOR/></header><body><segment><metadata><OBJECT_NAME>IRIDIUM 920</OBJECT_NAME><OBJECT_ID>1997-034C</OBJECT_ID><CENTER_NAME>EARTH</CENTER_NAME><REF_FRAME>TEME</REF_FRAME><TIME_SYSTEM>UTC</TIME_SYSTEM><MEAN_ELEMENT_THEORY>SGP4</MEAN_ELEMENT_THEORY></metadata><data><meanElements><EPOCH>2025-07-25T11:17:45.062880</EPOCH><MEAN_MOTION>14.41557479</MEAN_MOTION><ECCENTRICITY>.0010143</ECCENTRICITY><INCLINATION>86.3989</INCLINATION><RA_OF_ASC_NODE>197.8072</RA_OF_ASC_NODE><ARG_OF_PERICENTER>325.0569</ARG_OF_PERICENTER><MEAN_ANOMALY>34.9964</MEAN_ANOMALY></meanElements><tleParameters><EPHEMERIS_TYPE>0</EPHEMERIS_TYPE><CLASSIFICATION_TYPE>U</CLASSIFICATION_TYPE><NORAD_CAT_ID>24871</NORAD_CAT_ID><ELEMENT_SET_NO>999</ELEMENT_SET_NO><REV_AT_EPOCH>47209</REV_AT_EPOCH><BSTAR>.11586E-3</BSTAR><MEAN_MOTION_DOT>.396E-5</MEAN_MOTION_DOT><MEAN_MOTION_DDOT>0</MEAN_MOTION_DDOT></tleParameters></data></segment></body></omm>

</ndm>
